NOAA 15                 
1 25338U 98030A   16292.59622037  .00000036  00000-0  34235-4 0  9995
2 25338  98.7853 297.0089 0010523 182.3088 177.8045 14.25758864958575
NOAA 18                 
1 28654U 05018A   16292.61727784  .00000033  00000-0  43532-4 0  9998
2 28654  99.1971 302.7583 0014809  32.5835 327.6247 14.12310119588150
METOP-A                 
1 29499U 06044A   16291.95913314  .00000054  00000-0  44665-4 0  9999
2 29499  98.7151 349.1904 0001855 130.3112 355.7121 14.21491250518542
NOAA 19                 
1 33591U 09005A   16292.58928988  .00000125  00000-0  92957-4 0  9996
2 33591  99.0561 250.4647 0013132 229.6552 130.3473 14.12117187396554
METOP-B                 
1 38771U 12049A   16291.92511900  .00000039  00000-0  37847-4 0  9993
2 38771  98.7156 349.6973 0001094 156.9222 321.4209 14.21486262211861
SARAL                   
1 39086U 13009A   16291.92351245  .00000001  00000-0  16515-4 0  9992
2 39086  98.5401 117.3183 0000490 159.1877 200.9326 14.31983007190435
